#aV2022  1 22  0  0  0.00000000     288 DD+AD WGS84 FIT  NGA
## 2193 518400.00000000   300.00000000 59601 0.0000000000000
+   31     1  2  3  4  5  6  7  8  9 10 11 12 13 14 15 16 17
+         18 19 20 21 23 24 25 26 27 28 29 30 31 32  0  0  0
+          0  0  0  0  0  0  0  0  0  0  0  0  0  0  0  0  0
+          0  0  0  0  0  0  0  0  0  0  0  0  0  0  0  0  0
+          0  0  0  0  0  0  0  0  0  0  0  0  0  0  0  0  0
++         2  2  2  2  2  2  2  2  2  2  2  2  2  2  2  2  2
++         2  2  2  2  2  2  2  2  2  2  2  2  2  2  0  0  0
++         0  0  0  0  0  0  0  0  0  0  0  0  0  0  0  0  0
++         0  0  0  0  0  0  0  0  0  0  0  0  0  0  0  0  0
++         0  0  0  0  0  0  0  0  0  0  0  0  0  0  0  0  0
%c cc cc ccc ccc cccc cccc cccc cccc ccccc ccccc ccccc ccccc
%c cc cc ccc ccc cccc cccc cccc cccc ccccc ccccc ccccc ccccc
%f  0.0000000  0.000000000  0.00000000000  0.000000000000000
%f  0.0000000  0.000000000  0.00000000000  0.000000000000000
%i    0    0    0    0      0      0      0      0         0
%i    0    0    0    0      0      0      0      0         0
/*      NGA, ST. LOUIS,MO.                                  
/*   EPHEMERIS COMPUTED FROM 2 DAYS OF DATA                 
/*   EPOCHA v7 SMOOTHER                                     
/*   G2139 IERS2010 SATIGS SATAPC                           
*  2022  1 22  8 35  0.00000000
P  1  -9080.163946  19427.860014 -15714.402981    450.948045                    
V  1 -16727.333349  10216.887792  23030.597350     -0.097220                    
P  2  21317.960756 -15409.420737  -3431.348848   -649.233139                    
V  2  -2159.613599   5377.928434 -31375.605283     -0.009079                    
P  3    836.219917  16117.397056 -21216.818623    -88.267659                    
V  3 -24692.254040 -10028.159940  -8530.313066     -0.155344                    
P  4  -1064.485605  26096.625882  -4580.934635   -193.754568                    
V  4  -3282.611766  -5583.307802 -31103.595491      0.019023                    
P  5  15702.380467  -8599.855747  19505.533531    -68.755872                    
V  5  22964.520004  10146.405287 -13749.997218     -0.013190                    
P  6  20546.382130  -1383.860868 -16743.115131    178.149947                    
V  6 -16375.527234  13702.975322 -21070.007524      0.111962                    
P  7   7382.739194  13864.337411  21764.159423    304.029398                    
V  7 -21900.701063  15492.707615  -2973.546761      0.033676                    
P  8  -7363.398863  20733.125768  14606.121546    -53.153090                    
V  8  -4745.231845 -18234.996236  23795.815188     -0.014795                    
P  9   7824.528052  24554.164704   6285.528790   -357.097303                    
V  9  -1825.516611   8410.687474 -30266.949852      0.012910                    
P 10 -23870.417670 -11839.950107   2158.652389   -299.925783                    
V 10   3203.480954  -1005.336711  31659.890345     -0.098226                    
P 11  23446.152099 -11552.974301  -4685.952568    -67.813887                    
V 11  -3454.170737   5566.258298 -31035.013932     -0.378723                    
P 12   2950.007803 -15276.642711 -21802.293909   -159.511444                    
V 12  24123.639265  12166.299480  -5192.526084     -0.056661                    
P 13  12886.302616 -13896.163146  18388.538475    249.293963                    
V 13   1089.344412  23726.343652  17178.439279      0.060544                    
P 14  23108.735140  12954.063516   2340.747266    -74.049793                    
V 14  -3964.231957   1378.847504  31380.122096     -0.051656                    
P 15   4962.488945 -21940.285149  13464.150453    -89.671288                    
V 15   7437.241205  16683.045751  24057.931181      0.028693                    
P 16 -19195.876370   3552.141618  17957.407210   -459.110162                    
V 16 -19739.455262 -12133.940830 -17977.174656     -0.052998                    
P 17  12657.656486  14744.430400 -17651.163075    564.797118                    
V 17   -167.699616  23305.136350  18925.954274      0.051028                    
P 18  -7023.385541 -13367.095082  21842.305728    255.978197                    
V 18  22706.632481 -15895.881774  -2524.758402     -0.075226                    
P 19  14582.608191   6209.358049 -21602.880660    108.818269                    
V 19   -146.774813  26733.965730   7504.576300      0.049879                    
P 20  22922.907619  -3585.785811  12690.748145    517.059031                    
V 20  15000.277136   6944.394892 -25371.736541     -0.001865                    
P 21 -16226.054604  19569.328820  -5795.881948    156.618786                    
V 21  -8543.442148   2941.316896  30940.129190      0.007597                    
P 23 -17157.946316 -16082.754489  12421.910391      8.720726                    
V 23  15398.576007   3908.056705  26208.557041     -0.037646                    
P 24  11335.055775 -21046.850145 -11415.792427    276.966336                    
V 24  12952.256072  -6846.949117  26566.124564     -0.005094                    
P 25 -10443.438995 -17663.072378 -17295.642163    274.497328                    
V 25  20217.484309   6943.169691 -19338.279081      0.054992                    
P 26 -25375.248847  -3605.037718   7474.024503    176.569586                    
V 26  -7878.756714  -6189.687358 -29121.322853      0.033483                    
P 27 -12753.276245  10599.187161  20460.446236     82.096718                    
V 27  -4143.725146 -26175.235744  11255.441716      0.202816                    
P 28  24131.330383   9187.718590  -5161.324760    416.902037                    
V 28   5055.593230   5880.393740  31192.614879     -0.080489                    
P 29  -3546.246908 -26028.281914   3678.266345   -470.489591                    
V 29   1956.983857  -4807.248146 -31809.694686     -0.049140                    
P 30  15864.560503   7001.543854  20242.783675   -508.414815                    
V 30 -20210.477086  15729.980572  10191.403171     -0.025552                    
P 31 -22201.787098   2901.287420 -14762.423831   -161.116839                    
V 31  13913.915951 -12125.244532 -23039.967084     -0.017809                    
P 32 -14999.971765 -10070.924911 -19408.989576    -54.558892                    
V 32  -1849.928084 -24819.090190  14032.404146     -0.062422                    
EOF
